{"fetched_at":"2026-03-29T16:36:15Z","count":15609,"tles":[{"name":"STARLINK-35754","line1":"1 67054U 25294AA  26087.87206486  .00022414  00000+0  82089-3 0  9990","line2":"2 67054  42.9998 289.6777 0000997  86.6691 273.4275 15.27606411 17733","category":"Starlink"}]}